GLOBALSTAR M075         
1 37192U 10054E   25174.88184574 -.00000091  00000+0  68720-4 0  9993
2 37192  51.9921 161.1525 0000178  34.9139 329.2330 12.62265899677223
GLOBALSTAR M073         
1 37193U 10054F   25174.44356963 -.00000109  00000+0 -28897-4 0  9991
2 37193  52.0070  76.3105 0000738  43.8902 127.6009 12.62272091678621
GLOBALSTAR M083         
1 37739U 11033A   25174.89732937 -.00000091  00000+0  71032-4 0  9991
2 37739  51.9876  23.6527 0000656  84.1023 289.5262 12.62264016648065
GLOBALSTAR M088         
1 37740U 11033B   25174.82567115 -.00000096  00000+0  42897-4 0  9992
2 37740  52.0057 289.4296 0000732 130.2373  38.2504 12.62265642643521
GLOBALSTAR M091         
1 37741U 11033C   25173.53795286 -.00000090  00000+0  79322-4 0  9999
2 37741  51.9991 256.8445 0000555 165.5494 208.8071 12.62268928643860
GLOBALSTAR M085         
1 37742U 11033D   25174.39547611 -.00000076  00000+0  15474-3 0  9993
2 37742  51.9838 205.2647 0000303 211.0605 162.4339 12.62269533644489
GLOBALSTAR M081         
1 37743U 11033E   25174.85279814 -.00000073  00000+0  17279-3 0  9994
2 37743  51.9936 206.6658 0000152 258.3348 272.9545 12.62266765645061
GLOBALSTAR M089         
1 37744U 11033F   25174.73378756 -.00000098  00000+0  31944-4 0  9990
2 37744  51.9905 161.2518 0000453  41.4551 130.0935 12.62265014645760
